NORAD_CAT_ID,OBJECT_NAME,OBJECT_TYPE,EPOCH,MEAN_MOTION,ECCENTRICITY,INCLINATION,RA_OF_ASC_NODE,ARG_OF_PERICENTER,MEAN_ANOMALY,BSTAR,MEAN_MOTION_DOT,MEAN_MOTION_DDOT,TLE_LINE0,TLE_LINE1,TLE_LINE2,SEMIMAJOR_AXIS,PERIOD,APOGEE,PERIGEE,DECAYED
51883.0,STARLINK-3576,PAYLOAD,2022-12-31 20:42:30,15.08843489,0.000272,53.2145,183.7466,47.5735,312.5487,2.7019e-05,1.42e-06,0.0,0 STARLINK-3576,1 51883U 22022AH  22365.86285228  .00000142  00000-0  27019-4 0  9992,2 51883  53.2145 183.7466 0002720  47.5735 312.5487 15.08843489 47544,6917.87,95.437,541.616,537.8530000000002,0.0
51883.0,STARLINK-3576,PAYLOAD,2023-01-01 12:36:21,15.08844375,0.0002721,53.2148,180.773,48.7826,311.34,1.6273e-06,-2.63e-06,0.0,0 STARLINK-3576,1 51883U 22022AH  23001.52525012 -.00000263  00000-0  16273-5 0  9997,2 51883  53.2148 180.7730 0002721  48.7826 311.3400 15.08844375 47641,6917.8669999999975,95.437,541.614,537.85,0.0
51883.0,STARLINK-3576,PAYLOAD,2023-01-01 20:33:18,15.08835498,0.0002663999999999,53.216,179.2861,48.8551,311.267,-4.274800000000001e-05,-9.69e-06,0.0,0 STARLINK-3576,1 51883U 22022AH  23001.85646020 -.00000969  00000-0 -42748-4 0  9995,2 51883  53.2160 179.2861 0002664  48.8551 311.2670 15.08835498 47694,6917.894,95.438,541.602,537.9159999999998,0.0
51883.0,STARLINK-3576,PAYLOAD,2023-01-02 12:27:06,15.08864085,0.0002493,53.2161,176.3125,45.2543,314.8652,0.00026854,3.991e-05,0.0,0 STARLINK-3576,1 51883U 22022AH  23002.51882473  .00003991  00000-0  26854-3 0  9998,2 51883  53.2161 176.3125 0002493  45.2543 314.8652 15.08864085 47792,6917.807,95.436,541.396,537.947,0.0
51883.0,STARLINK-3576,PAYLOAD,2023-01-02 21:59:27,15.08836295,0.0002653,53.2167,174.5284,42.9858,317.1341,7.6085e-06,-1.67e-06,0.0,0 STARLINK-3576,1 51883U 22022AH  23002.91628726 -.00000167  00000-0  76085-5 0  9997,2 51883  53.2167 174.5284 0002653  42.9858 317.1341 15.08836295 47855,6917.892,95.438,541.592,537.9209999999998,0.0
51883.0,STARLINK-3576,PAYLOAD,2023-01-03 04:21:00,15.08827481,0.0002661999999999,53.216,173.3388,47.912,312.2099,-6.4915e-05,-1.321e-05,0.0,0 STARLINK-3576,1 51883U 22022AH  23003.18125793 -.00001321  00000-0 -64915-4 0  9995,2 51883  53.2160 173.3388 0002662  47.9120 312.2099 15.08827481 47894,6917.919,95.438,541.625,537.942,0.0
51883.0,STARLINK-3576,PAYLOAD,2023-01-03 12:17:56,15.08827839,0.0002622,53.2155,171.8511,46.5948,313.5262,-2.8145e-05,-7.36e-06,0.0,0 STARLINK-3576,1 51883U 22022AH  23003.51245886 -.00000736  00000-0 -28145-4 0  9992,2 51883  53.2155 171.8511 0002622  46.5948 313.5262 15.08827839 47947,6917.918000000002,95.438,541.596,537.969,0.0
51883.0,STARLINK-3576,PAYLOAD,2023-01-04 04:11:47,15.08830576,0.0002667,53.2156,168.8779,48.0097,312.1122,6.6016e-05,7.62e-06,0.0,0 STARLINK-3576,1 51883U 22022AH  23004.17485907  .00000762  00000-0  66016-4 0  9991,2 51883  53.2156 168.8779 0002667  48.0097 312.1122 15.08830576 48045,6917.909000000002,95.438,541.619,537.929,0.0
51883.0,STARLINK-3576,PAYLOAD,2023-01-04 10:33:19,15.08829461,0.0002723999999999,53.2156,167.6883,52.0197,308.1041,9.852e-05,1.279e-05,0.0,0 STARLINK-3576,1 51883U 22022AH  23004.43981329  .00001279  00000-0  98520-4 0  9998,2 51883  53.2156 167.6883 0002724  52.0197 308.1041 15.08829461 48088,6917.913000000001,95.438,541.6619999999998,537.893,0.0
51883.0,STARLINK-3576,PAYLOAD,2023-01-04 16:54:52,15.08835579,0.0002695,53.2155,166.49900000000005,48.3115,311.8107,0.00013763,1.902e-05,0.0,0 STARLINK-3576,1 51883U 22022AH  23004.70477006  .00001902  00000-0  13763-3 0  9998,2 51883  53.2155 166.4990 0002695  48.3115 311.8107 15.08835579 48124,6917.894,95.438,541.623,537.895,0.0
51883.0,STARLINK-3576,PAYLOAD,2023-01-05 04:02:33,15.0884197,0.0002723999999999,53.2157,164.4175,48.0392,312.0832,0.0002465,3.637e-05,0.0,0 STARLINK-3576,1 51883U 22022AH  23005.16844484  .00003637  00000-0  24650-3 0  9991,2 51883  53.2157 164.4175 0002724  48.0392 312.0832 15.08841970 48193,6917.874,95.437,541.624,537.855,0.0
51883.0,STARLINK-3576,PAYLOAD,2023-01-05 16:45:38,15.08850349,0.0002784,53.2143,162.0383,48.674,311.4492,0.00037314,5.657e-05,0.0,0 STARLINK-3576,1 51883U 22022AH  23005.69836683  .00005657  00000-0  37314-3 0  9996,2 51883  53.2143 162.0383 0002784  48.6740 311.4492 15.08850349 48276,6917.849,95.437,541.64,537.788,0.0
51883.0,STARLINK-3576,PAYLOAD,2023-01-06 13:25:40,15.08827435,0.0002775,53.2144,158.1725,48.6748,311.4482,-0.00013305,-2.405e-05,0.0,0 STARLINK-3576,1 51883U 22022AH  23006.55949857 -.00002405  00000-0 -13305-3 0  9994,2 51883  53.2144 158.1725 0002775  48.6748 311.4482 15.08827435 48405,6917.919,95.438,541.7040000000002,537.864,0.0
51883.0,STARLINK-3576,PAYLOAD,2023-01-06 19:47:13,15.08835028,0.0002387,53.2154,156.9822,52.2167,307.9041,-3.554e-05,-8.54e-06,0.0,0 STARLINK-3576,1 51883U 22022AH  23006.82445793 -.00000854  00000-0 -35540-4 0  9996,2 51883  53.2154 156.9822 0002387  52.2167 307.9041 15.08835028 48447,6917.896,95.438,541.4119999999998,538.109,0.0
51883.0,STARLINK-3576,PAYLOAD,2023-01-07 05:19:29,15.08867624,0.0002508,53.2161,155.1993,43.8965,316.2226,0.00014182,1.971e-05,0.0,0 STARLINK-3576,1 51883U 22022AH  23007.22186823  .00001971  00000-0  14182-3 0  9994,2 51883  53.2161 155.1993 0002508  43.8965 316.2226 15.08867624 48504,6917.795999999999,95.436,541.396,537.9259999999998,0.0
51883.0,STARLINK-3576,PAYLOAD,2023-01-07 10:05:40,15.08843868,0.0002804,53.2153,154.3071,42.9598,317.1613,-7.4909e-05,-1.481e-05,0.0,0 STARLINK-3576,1 51883U 22022AH  23007.42060735 -.00001481  00000-0 -74909-4 0  9991,2 51883  53.2153 154.3071 0002804  42.9598 317.1613 15.08843868 48531,6917.8690000000015,95.437,541.673,537.794,0.0
51883.0,STARLINK-3576,PAYLOAD,2023-01-07 19:38:00,15.08830235,0.0002644,53.2161,152.5223,43.0396,317.0802,-7.8519e-05,-1.538e-05,0.0,0 STARLINK-3576,1 51883U 22022AH  23007.81805680 -.00001538  00000-0 -78519-4 0  9994,2 51883  53.2161 152.5223 0002644  43.0396 317.0802 15.08830235 48598,6917.91,95.438,541.604,537.946,0.0
51883.0,STARLINK-3576,PAYLOAD,2023-01-08 01:59:32,15.08834389,0.0002677,53.2155,151.334,44.021,316.0995,1.034e-05,-1.24e-06,0.0,0 STARLINK-3576,1 51883U 22022AH  23008.08301244 -.00000124  00000-0  10340-4 0  9998,2 51883  53.2155 151.3340 0002677  44.0210 316.0995 15.08834389 48631,6917.898,95.438,541.614,537.911,0.0
51883.0,STARLINK-3576,PAYLOAD,2023-01-08 11:31:50,15.08836084,0.0002562,53.2157,149.5494,43.2699,316.8494,0.00016886,2.4e-05,0.0,0 STARLINK-3576,1 51883U 22022AH  23008.48044813  .00002400  00000-0  16886-3 0  9996,2 51883  53.2157 149.5494 0002562  43.2699 316.8494 15.08836084 48699,6917.892,95.438,541.53,537.985,0.0
51883.0,STARLINK-3576,PAYLOAD,2023-01-09 05:01:05,15.0884793,0.0002692,53.2158,146.2787,41.4429,318.6767,-0.00011518,-2.122e-05,0.0,0 STARLINK-3576,1 51883U 22022AH  23009.20908996 -.00002122  00000-0 -11518-3 0  9998,2 51883  53.2158 146.2787 0002692  41.4429 318.6767 15.08847930 48802,6917.856,95.437,541.5830000000002,537.859,0.0
51883.0,STARLINK-3576,PAYLOAD,2023-01-09 11:22:38,15.08831055,0.0002738,53.2157,145.0892,42.9163,317.2043,4.3274e-05,4e-06,0.0,0 STARLINK-3576,1 51883U 22022AH  23009.47405606  .00000400  00000-0  43274-4 0  9997,2 51883  53.2157 145.0892 0002738  42.9163 317.2043 15.08831055 48844,6917.908,95.438,541.6669999999998,537.879,0.0
51883.0,STARLINK-3576,PAYLOAD,2023-01-09 16:08:47,15.08835928,0.0002865,53.216,144.19899999999996,35.7326,324.3857,8.4204e-05,1.052e-05,0.0,0 STARLINK-3576,1 51883U 22022AH  23009.67277278  .00001052  00000-0  84204-4 0  9993,2 51883  53.2160 144.1990 0002865  35.7326 324.3857 15.08835928 48877,6917.893,95.438,541.74,537.776,0.0
51883.0,STARLINK-3576,PAYLOAD,2023-01-10 12:48:48,15.08836537,0.000253,53.216,140.3319,38.5561,321.5611,2.5464e-06,-2.48e-06,0.0,0 STARLINK-3576,1 51883U 22022AH  23010.53389721 -.00000248  00000-0  25464-5 0  9998,2 51883  53.2160 140.3319 0002530  38.5561 321.5611 15.08836537 49001,6917.891,95.438,541.506,538.006,0.0
51883.0,STARLINK-3576,PAYLOAD,2023-01-11 14:14:58,15.08844868,0.0002683,53.2162,135.5747,32.5517,327.5641,0.00013049,1.789e-05,0.0,0 STARLINK-3576,1 51883U 22022AH  23011.59372973  .00001789  00000-0  13049-3 0  9990,2 51883  53.2162 135.5747 0002683  32.5517 327.5641 15.08844868 49160,6917.866,95.437,541.587,537.874,0.0
51883.0,STARLINK-3576,PAYLOAD,2023-01-12 01:22:40,15.08839513,0.0002382,53.2162,133.4925,30.7307,329.3825,7.3528e-05,8.82e-06,0.0,0 STARLINK-3576,1 51883U 22022AH  23012.05741393  .00000882  00000-0  73528-4 0  9990,2 51883  53.2162 133.4925 0002382  30.7307 329.3825 15.08839513 49231,6917.882,95.438,541.395,538.099,0.0
51883.0,STARLINK-3576,PAYLOAD,2023-01-12 14:05:46,15.08832595,0.0002248,53.2178,131.1099,34.8808,325.2331,2.6183000000000007e-05,1.28e-06,0.0,0 STARLINK-3576,1 51883U 22022AH  23012.58734136  .00000128  00000-0  26183-4 0  9993,2 51883  53.2178 131.1099 0002248  34.8808 325.2331 15.08832595 49316,6917.903,95.438,541.323,538.2130000000002,0.0
51883.0,STARLINK-3576,PAYLOAD,2023-01-13 01:13:27,15.08858388,0.00019,53.2173,129.0296,32.6744,327.4365,-0.00020769,-3.594e-05,0.0,0 STARLINK-3576,1 51883U 22022AH  23013.05101762 -.00003594  00000-0 -20769-3 0  9994,2 51883  53.2173 129.0296 0001900  32.6744 327.4365 15.08858388 49381,6917.824000000001,95.436,541.004,538.375,0.0
51883.0,STARLINK-3576,PAYLOAD,2023-01-13 13:56:33,15.08839046,0.0002227,53.2161,126.6517,39.4064,320.709,-4.1037e-05,-9.41e-06,0.0,0 STARLINK-3576,1 51883U 22022AH  23013.58094372 -.00000941  00000-0 -41037-4 0  9995,2 51883  53.2161 126.6517 0002227  39.4064 320.7090 15.08839046 49460,6917.883000000001,95.438,541.289,538.2080000000001,0.0
51883.0,STARLINK-3576,PAYLOAD,2023-01-14 07:25:48,15.08827722,0.0002069,53.2172,123.3796,38.6223,321.4917,6.2966e-05,7.14e-06,0.0,0 STARLINK-3576,1 51883U 22022AH  23014.30959255  .00000714  00000-0  62966-4 0  9996,2 51883  53.2172 123.3796 0002069  38.6223 321.4917 15.08827722 49573,6917.918000000001,95.438,541.214,538.352,0.0
